     2.100          NAVIGATION                              RINEX VERSION / TYPE
fic2rin                                 10/11/2011 00:09:12 PGM / RUN BY / DATE
                                                            END OF HEADER
19 11 10 10 18  0  0.0 -.192845705897D-03 -.397903932026D-11  .000000000000D+00
     .270000000000D+02 -.600937500000D+02  .492663378550D-08  .295887492573D+01
    -.304169952869D-05  .762096128892D-02  .642053782940D-05  .515370477676D+04
     .151200000000D+06 -.104308128357D-06  .194696420013D+01 -.316649675369D-07
     .958987373148D+00  .255750000000D+03  .116557820953D+00 -.816069706865D-08
    -.431446542909D-09  .100000000000D+01  .165700000000D+04  .000000000000D+00
     .240000000000D+01  .000000000000D+00 -.144354999065D-07  .270000000000D+02
     .144006000000D+06  .400000000000D+01
20 11 10 10 18  0  0.0  .541768968105D-04  .568434188608D-12  .000000000000D+00
     .680000000000D+02  .856875000000D+02  .543736934540D-08 -.692484554018D+00
     .442191958427D-05  .461105490103D-02  .502727925777D-05  .515357940865D+04
     .151200000000D+06 -.838190317154D-07 -.236838822984D+01  .391155481339D-07
     .932088462894D+00  .265187500000D+03  .126412180793D+01 -.873857828258D-08
     .256439253153D-09  .100000000000D+01  .165700000000D+04  .000000000000D+00
     .240000000000D+01  .000000000000D+00 -.745058059692D-08  .680000000000D+02
     .144006000000D+06  .400000000000D+01
21 11 10 10 18  0  0.0 -.177023932338D-03 -.250111042988D-11  .000000000000D+00
     .740000000000D+02  .281875000000D+02  .507878298027D-08 -.307885051391D-01
     .153668224812D-05  .181563285878D-01  .118445605040D-04  .515371494102D+04
     .151200000000D+06 -.931322574615D-08  .291610746950D+01  .227242708206D-06
     .932059093351D+00  .135781250000D+03 -.232631327807D+01 -.856392815055D-08
    -.209651589973D-09  .100000000000D+01  .165700000000D+04  .000000000000D+00
     .240000000000D+01  .000000000000D+00 -.116415321827D-07  .740000000000D+02
     .144006000000D+06  .400000000000D+01
22 11 10 10 18  0  0.0  .144059769809D-03 -.113686837722D-12  .000000000000D+00
     .900000000000D+01  .875625000000D+02  .538200989660D-08 -.198250885822D+01
     .447593629360D-05  .589591544122D-02  .447034835815D-05  .515370248604D+04
     .151200000000D+06  .134110450745D-06 -.231066348077D+01 -.856816768646D-07
     .929468481945D+00  .278531250000D+03 -.197122339467D+01 -.857642867125D-08
     .263225250103D-09  .100000000000D+01  .165700000000D+04  .000000000000D+00
     .240000000000D+01  .000000000000D+00 -.167638063431D-07  .900000000000D+01
     .144006000000D+06  .400000000000D+01
23 11 10 10 18  0  0.0  .269035343081D-03 -.318323145621D-11  .000000000000D+00
     .810000000000D+02 -.786250000000D+02  .462769276198D-08  .247784905483D+01
    -.408478081226D-05  .757595349569D-02  .457093119621D-05  .515371998024D+04
     .151200000000D+06 -.651925802231D-07 -.126780883109D+01  .186264514923D-07
     .962560139476D+00  .295531250000D+03 -.304277056240D+01 -.825284376407D-08
    -.429660754238D-09  .100000000000D+01  .165700000000D+04  .000000000000D+00
     .240000000000D+01  .000000000000D+00 -.200234353542D-07  .810000000000D+02
     .144006000000D+06  .400000000000D+01
25 11 10 10 18  0  0.0  .227224081755D-04  .181898940355D-11  .000000000000D+00
     .100000000000D+03  .545312500000D+02  .474948354934D-08 -.838283633581D+00
     .292249023914D-05  .101925805211D-02  .623427331448D-05  .515357979774D+04
     .151200000000D+06  .447034835815D-07  .801540296994D+00 -.931322574615D-08
     .965594358847D+00  .264875000000D+03  .971547572308D+00 -.822462830307D-08
     .549665752928D-09  .100000000000D+01  .165700000000D+04  .000000000000D+00
     .240000000000D+01  .000000000000D+00  .558793544769D-08  .100000000000D+03
     .144006000000D+06  .400000000000D+01
26 11 10 10 18  0  0.0 -.186010729522D-03 -.130739863380D-10  .000000000000D+00
     .111000000000D+03 -.799062500000D+02  .387909015110D-08  .230583354263D+01
    -.442005693913D-05  .203981712693D-01  .511109828949D-05  .515365648079D+04
     .151200000000D+06  .141561031342D-06 -.119995382637D+01 -.309199094772D-06
     .985602734767D+00  .292625000000D+03  .116180068733D+01 -.770532095755D-08
    -.362515100209D-09  .100000000000D+01  .165700000000D+04  .000000000000D+00
     .340000000000D+01  .000000000000D+00 -.605359673500D-08  .111000000000D+03
     .144006000000D+06  .400000000000D+01
27 11 10 10 18  0  0.0  .313797034323D-03  .386535248253D-11  .000000000000D+00
     .990000000000D+02 -.279687500000D+02  .358586365133D-08 -.302164910624D+01
    -.150687992573D-05  .216648651985D-01  .118892639875D-04  .515362080002D+04
     .151200000000D+06  .203028321266D-06 -.275528489713D+00  .245869159698D-06
     .981886621485D+00  .152218750000D+03 -.119511907522D+01 -.723030117107D-08
     .792890169915D-10  .100000000000D+01  .165700000000D+04  .000000000000D+00
     .485000000000D+01  .630000000000D+02 -.419095158577D-08  .990000000000D+02
     .144006000000D+06  .400000000000D+01
28 11 10 10 18  0  0.0  .744555145502D-04  .318323145621D-11  .000000000000D+00
     .450000000000D+02  .529375000000D+02  .437446792843D-08 -.193041177360D+01
     .288337469101D-05  .172715773806D-01  .545196235180D-05  .515370084953D+04
     .151200000000D+06  .270083546638D-06  .857977198308D+00  .838190317154D-07
     .975993289649D+00  .275687500000D+03 -.187827275737D+01 -.783175479545D-08
     .598239204778D-09  .100000000000D+01  .165700000000D+04  .000000000000D+00
     .240000000000D+01  .000000000000D+00 -.102445483208D-07  .450000000000D+02
     .144006000000D+06  .400000000000D+01
30 11 10 10 18  0  0.0  .715251080692D-04 -.682121026330D-11  .000000000000D+00
     .760000000000D+02  .643125000000D+02  .477091301339D-08 -.207210829544D+01
     .349245965481D-05  .117059169570D-01  .673532485962D-05  .515543251419D+04
     .151200000000D+06  .199303030968D-06  .712695257361D+00  .121071934700D-06
     .956946536596D+00  .243093750000D+03  .158157424847D+01 -.808497962900D-08
     .610739725475D-09  .100000000000D+01  .165700000000D+04  .000000000000D+00
     .340000000000D+01  .000000000000D+00 -.419095158577D-08  .760000000000D+02
     .144006000000D+06  .400000000000D+01
31 11 10 10 18  0  0.0  .153506640345D-03  .534328137292D-11  .000000000000D+00
     .630000000000D+02 -.310625000000D+02  .369801117987D-08  .864970790831D+00
    -.156648457050D-05  .770928629208D-02  .126939266920D-04  .515375693321D+04
     .151200000000D+06  .316649675369D-07 -.219984707200D+00 -.171363353729D-06
     .980641215917D+00  .142781250000D+03 -.951755010451D+00 -.769317759458D-08
     .150720563831D-09  .100000000000D+01  .165700000000D+04  .000000000000D+00
     .240000000000D+01  .000000000000D+00 -.130385160446D-07  .630000000000D+02
     .144006000000D+06  .400000000000D+01
32 11 10 10 18  0  0.0 -.343217514455D-03 -.636646291241D-11  .000000000000D+00
     .186000000000D+03  .800000000000D+02  .490377569051D-08  .161004911209D+01
     .407733023167D-05  .121824957896D-01  .378675758839D-05  .515355255699D+04
     .151200000000D+06  .163912773132D-06 -.224072533923D+01  .968575477600D-07
     .953624294988D+00  .296468750000D+03 -.717438083124D+00 -.836141971526D-08
     .137505727665D-09  .100000000000D+01  .165700000000D+04  .000000000000D+00
     .340000000000D+01  .000000000000D+00 -.279396772385D-08  .186000000000D+03
     .144006000000D+06  .400000000000D+01
13 11 10 10 17 59 44.0  .247314572334D-03 -.193267624127D-11  .000000000000D+00
     .100000000000D+01 -.806250000000D+02  .397695137027D-08 -.297381934050D+01
    -.409595668316D-05  .458028807770D-02  .532530248165D-05  .515376629257D+04
     .151184000000D+06  .428408384323D-07 -.119472930703D+01 -.484287738800D-07
     .988008880981D+00  .292437500000D+03  .195635549052D+01 -.785425573271D-08
    -.421803284086D-09  .100000000000D+01  .165700000000D+04  .000000000000D+00
     .240000000000D+01  .000000000000D+00 -.111758708954D-07  .100000000000D+01
     .144546000000D+06  .400000000000D+01
 3 11 10 10 17 59 44.0  .779534224421D-03  .511590769747D-11  .000000000000D+00
     .140000000000D+02 -.502187500000D+02  .566380734888D-08  .253523818122D+01
    -.278092920780D-05  .148684777087D-01  .425986945629D-05  .515367442703D+04
     .151184000000D+06  .856816768646D-07  .173124952551D+01 -.197440385818D-06
     .929243568530D+00  .279625000000D+03  .114525628491D+01 -.848071039849D-08
    -.321441960776D-09  .100000000000D+01  .165700000000D+04  .000000000000D+00
     .240000000000D+01  .000000000000D+00 -.465661287308D-08  .140000000000D+02
     .145986000000D+06  .400000000000D+01
26 11 10 10 17 59 44.0 -.186012592167D-03 -.130739863380D-10  .000000000000D+00
     .900000000000D+01 -.799062500000D+02  .387909015110D-08  .230349970260D+01
    -.442005693913D-05  .203981690574D-01  .511109828949D-05  .515365648079D+04
     .151184000000D+06  .141561031342D-06 -.119995368300D+01 -.309199094772D-06
     .985602727453D+00  .292625000000D+03  .116180074585D+01 -.770532095755D-08
    -.362515100209D-09  .100000000000D+01  .165700000000D+04  .000000000000D+00
     .240000000000D+01  .000000000000D+00 -.605359673500D-08  .900000000000D+01
     .147666000000D+06  .400000000000D+01
25 11 10 10 17 59 44.0  .227233394980D-04  .181898940355D-11  .000000000000D+00
     .440000000000D+02  .545312500000D+02  .474948354934D-08 -.840613453507D+00
     .292249023914D-05  .101926166099D-02  .623427331448D-05  .515357979584D+04
     .151184000000D+06  .447034835815D-07  .801540438897D+00 -.931322574615D-08
     .965594354458D+00  .264875000000D+03  .971543539042D+00 -.822462830307D-08
     .549665752928D-09  .100000000000D+01  .165700000000D+04  .000000000000D+00
     .240000000000D+01  .000000000000D+00  .558793544769D-08  .440000000000D+02
     .148566000000D+06  .400000000000D+01
